54127,ONEWEB-0509,2022,109.11,148.0,+,87.92,Active,1,LEO,India,UK,Commercial,Communications,PSLV,1 54127U 22138Q   24033.79486507 -.00000261  00000+0 -68493-3 0  9996,2 54127  87.9187 117.2391 0002135 104.9781 255.1588 13.19724535 62660,13.19724535,0.0002135,LEO
54128,ONEWEB-0510,2022,109.03,148.0,+,87.92,Active,1,LEO,India,UK,Commercial,Communications,PSLV,1 54128U 22138R   24033.68590669 -.00000048  00000+0 -15032-3 0  9994,2 54128  87.9160  86.7051 0002147  86.4553 273.6826 13.20772650 65036,13.2077265,0.0002147,LEO
54129,ONEWEB-0511,2022,109.11,148.0,+,87.92,Active,1,LEO,India,UK,Commercial,Communications,PSLV,1 54129U 22138S   24033.79170192 -.00000263  00000+0 -69017-3 0  9993,2 54129  87.9189 117.2418 0002012 115.8952 244.2388 13.19724632 62697,13.19724632,0.0002012,LEO
54130,ONEWEB-0512,2022,109.11,148.0,+,87.92,Active,1,LEO,India,UK,Commercial,Communications,PSLV,1 54130U 22138T   24034.31454853  .00000022  00000+0  21795-4 0  9996,2 54130  87.9195 117.1429 0002477 106.4791 253.6614 13.19725631 63607,13.19725631,0.0002477,LEO
54131,ONEWEB-0513,2022,109.11,148.0,+,87.92,Active,1,LEO,India,UK,Commercial,Communications,PSLV,1 54131U 22138U   24033.75459340 -.00000072  00000+0 -21161-3 0  9993,2 54131  87.9194 117.2518 0002579 114.7140 245.4261 13.19726982 62549,13.19726982,0.0002579,LEO
54132,ONEWEB-0514,2022,109.11,148.0,+,87.92,Active,1,LEO,India,UK,Commercial,Communications,PSLV,1 54132U 22138V   24033.72379732 -.00000011  00000+0 -60749-4 0  9996,2 54132  87.9191 117.2592 0001910 105.7202 254.4142 13.19724906 62672,13.19724906,0.000191,LEO
54133,ONEWEB-0515,2022,109.03,148.0,+,87.92,Active,1,LEO,India,UK,Commercial,Communications,PSLV,1 54133U 22138W   24033.59752913 -.00000055  00000+0 -16637-3 0  9992,2 54133  87.9157  86.7034 0001492  61.4962 298.6321 13.20772354 65047,13.20772354,0.0001492,LEO
54134,ONEWEB-0516,2022,109.11,148.0,+,87.92,Active,1,LEO,India,UK,Commercial,Communications,PSLV,1 54134U 22138X   24033.77434679  .00000060  00000+0  11837-3 0  9990,2 54134  87.9197 117.2509 0002007 103.4502 256.6854 13.19726621 62685,13.19726621,0.0002007,LEO
